IRIDIUM 150             
1 43257U 18030J   23314.73814245  .00000032  00000+0  45158-5 0  9992
2 43257  86.3950 327.2847 0002297 100.1024 260.0431 14.34211338294073
IRIDIUM 143             
1 43258U 18030K   23314.78888841  .00000375  00000+0  12686-3 0  9999
2 43258  86.3953 327.3184 0002452  93.5461 266.6015 14.34222009294016
IRIDIUM 161             
1 43478U 18047C   23314.96040668  .00000253  00000+0  69078-4 0  9991
2 43478  86.4459 125.2200 0002017  91.6555 268.4877 14.43280587288223
IRIDIUM 152             
1 43479U 18047D   23314.90114822  .00001124  00000+0  39438-3 0  9994
2 43479  86.3931 125.1038 0002220  85.1260 275.0189 14.34217099286421
IRIDIUM 147             
1 43480U 18047E   23314.90747457  .00000173  00000+0  54692-4 0  9995
2 43480  86.3934 125.0903 0001862  89.3545 270.7864 14.34219654286420
IRIDIUM 110             
1 43481U 18047F   23314.42543620  .00000239  00000+0  78180-4 0  9990
2 43481  86.3937 125.3590 0001743  92.0133 268.1262 14.34219343286340
IRIDIUM 162             
1 43482U 18047G   23315.02345604  .00000255  00000+0  69903-4 0  9991
2 43482  86.4458 125.0966 0002036  91.5920 268.5514 14.43286159288220
IRIDIUM 160             
1 43569U 18061A   23314.92942521  .00000057  00000+0  13455-4 0  9993
2 43569  86.3941  93.5036 0002084  83.4755 276.6678 14.34211778277312
